[{"OBJECT_NAME":"STARLINK-3513","OBJECT_ID":"2022-016AU","EPOCH":"2026-03-09T22:17:49.773120","MEAN_MOTION":15.0883954,"ECCENTRICITY":0.00013386,"INCLINATION":53.2189,"RA_OF_ASC_NODE":308.0441,"ARG_OF_PERICENTER":95.0913,"MEAN_ANOMALY":265.0232,"EPHEMERIS_TYPE":0,"CLASSIFICATION_TYPE":"U","NORAD_CAT_ID":51756,"ELEMENT_SET_NO":999,"REV_AT_EPOCH":22374,"BSTAR":-2.0432753e-5,"MEAN_MOTION_DOT":-6.13e-6,"MEAN_MOTION_DDOT":0},{"OBJECT_NAME":"CZ-6A DEB","OBJECT_ID":"2022-151KK","EPOCH":"2026-03-09T15:42:53.993376","MEAN_MOTION":15.13886585,"ECCENTRICITY":0.0019766,"INCLINATION":98.5478,"RA_OF_ASC_NODE":140.8365,"ARG_OF_PERICENTER":144.334,"MEAN_ANOMALY":215.9214,"EPHEMERIS_TYPE":0,"CLASSIFICATION_TYPE":"U","NORAD_CAT_ID":54531,"ELEMENT_SET_NO":999,"REV_AT_EPOCH":8393,"BSTAR":0.0066445138,"MEAN_MOTION_DOT":0.00122683,"MEAN_MOTION_DDOT":0}]
